GLOBALSTAR M084         
1 38040U 11080A   26014.50134660 -.00000119  00000+0 -84640-4 0  9991
2 38040  52.0003 125.1573 0001114 117.9554 342.1191 12.62267095649358
GLOBALSTAR M080         
1 38041U 11080B   26014.61238759 -.00000117  00000+0 -72767-4 0  9993
2 38041  52.0055 126.4845 0000412 118.0768 256.5800 12.62265450649494
GLOBALSTAR M082         
1 38042U 11080C   26015.18296465 -.00000098  00000+0  30335-4 0  9997
2 38042  52.0083  80.2329 0000255 127.4813 250.9776 12.62266637650276
GLOBALSTAR M092         
1 38043U 11080D   26014.87206431 -.00000091  00000+0  71531-4 0  9993
2 38043  52.0062 171.5662 0001013  99.1049  65.7618 12.62269411648689
GLOBALSTAR M090         
1 38044U 11080E   26015.13119558 -.00000097  00000+0  40414-4 0  9999
2 38044  52.0129  74.2976 0000480 104.2434 277.6431 12.62265813650383
GLOBALSTAR M086         
1 38045U 11080F   26014.54899794 -.00000102  00000+0  86155-5 0  9991
2 38045  51.9907  76.2495 0001512  83.3437  63.3483 12.62282045650250
GLOBALSTAR M097         
1 39072U 13005A   26015.09952217 -.00000102  00000+0  77367-5 0  9997
2 39072  52.0071 349.3474 0000511  55.7110 304.3805 12.62268121597575
GLOBALSTAR M093         
1 39073U 13005B   26015.07335410 -.00000095  00000+0  46275-4 0  9990
2 39073  52.0130 342.7169 0000716  37.8048 322.2869 12.62271622597522
